{"fetched_at":"2026-03-29T16:36:15Z","count":15609,"tles":[{"name":"STARLINK-33632","line1":"1 63577U 25076J   26087.69444738  .00032563  00000+0  11867-2 0  9999","line2":"2 63577  43.0003 214.6524 0001494 263.2050  96.8632 15.27604063 54737","category":"Starlink"}]}