{
  "norad_id": 63577,
  "name": "STARLINK-33632",
  "history": [
    {
      "epoch": "2026-03-28T16:40:00.253632Z",
      "apogee_km": 484.00236858955304,
      "perigee_km": 481.9517188241707,
      "latitude_deg": 2.8145492982570286e-05,
      "longitude_deg": 138.54015879752401,
      "height_km": 482.87513926120965,
      "semi_major_axis_km": 6861.114043706862,
      "eccentricity": 0.00014944,
      "inclination_deg": 43.0003,
      "raan_deg": 214.6524,
      "arg_perigee_deg": 263.205,
      "mean_anomaly_deg": 96.8632,
      "mean_motion_rev_day": 15.27604063
    }
  ]
}